OBJECT_NAME,OBJECT_ID,EPOCH,MEAN_MOTION,ECCENTRICITY,INCLINATION,RA_OF_ASC_NODE,ARG_OF_PERICENTER,MEAN_ANOMALY,EPHEMERIS_TYPE,CLASSIFICATION_TYPE,NORAD_CAT_ID,ELEMENT_SET_NO,REV_AT_EPOCH,BSTAR,MEAN_MOTION_DOT,MEAN_MOTION_DDOT
CUBEBUG-2 (LO-74),2013-066AA,2026-06-17T09:33:17.238816,14.93763127,.0058378,97.8909,117.3770,28.4148,332.0233,0,U,39440,999,67702,.35342E-3,.381E-4,0
FUNCUBE-1 (AO-73),2013-066AE,2026-06-17T10:54:09.969984,15.09493115,.0035653,97.8279,139.9057,199.8844,160.0997,0,U,39444,999,67970,.31861E-3,.5112E-4,0
UWE-3,2013-066AG,2026-06-17T09:59:17.371392,14.97025793,.0047505,97.8697,124.4914,320.3944,39.3810,0,U,39446,999,67761,.29686E-3,.3433E-4,0
UNISAT-6,2014-033C,2026-06-17T09:39:12.737664,14.88246959,.0046246,97.7880,321.1099,68.6169,291.9973,0,U,40012,999,64619,.20612E-3,.1884E-4,0
DUCHIFAT-1,2014-033M,2026-06-17T02:03:16.411104,15.64575667,.0003017,98.0464,227.2320,117.8101,242.3462,0,U,40021,999,65573,.89449E-3,.86906E-3,0
QB50P1,2014-033R,2026-06-17T00:26:17.797920,15.18259399,.0007771,98.0959,179.1525,215.7704,144.3009,0,U,40025,999,65300,.32676E-3,.6622E-4,0
LILACSAT-2,2015-049K,2026-06-17T11:10:41.322720,15.51452169,.0005515,97.4639,205.3181,243.6135,116.4551,0,U,40908,999,59579,.23985E-3,.14064E-3,0
FOX-1A (AO-85),2015-058D,2026-06-17T11:40:51.731040,14.90970839,.013049,64.7761,278.0532,56.4670,304.8826,0,U,40967,999,11361,.17239E-3,.1829E-4,0
CAS-2T & KS-1Q,2016-066G,2026-06-17T02:27:01.666368,14.44694196,.0342791,98.3822,243.8394,129.7362,233.4574,0,U,41847,999,50478,.21211E-3,.1464E-4,0
RADFXSAT (FOX-1B),2017-073E,2026-06-17T03:24:14.956992,15.12717347,.0149573,97.4699,35.3574,329.4160,29.8412,0,U,43017,999,46538,.25063E-3,.5702E-4,0
DIWATA-2B,2018-084H,2026-06-17T12:04:46.397856,15.00452646,.001248,98.1177,4.7247,169.1123,191.0371,0,U,43678,999,41626,.14554E-3,.1768E-4,0
ES'HAIL 2,2018-090A,2026-06-16T18:16:15.449952,1.00270422,.0001609,0.0175,13.0563,111.1044,80.7103,0,U,43700,999,2767,0,.141E-5,0
FOX-1CLIFF (AO-95),2018-099N,2026-06-17T09:43:46.293888,15.26715554,.0007952,97.4379,228.6506,357.1065,3.0126,0,U,43770,999,41325,.33623E-3,.877E-4,0
ITASAT,2018-099AE,2026-06-17T02:06:03.945888,15.19055872,.0012101,97.4026,219.6012,0.6685,359.4564,0,U,43786,999,41289,.26431E-3,.5482E-4,0
JY1SAT (JO-97),2018-099AX,2026-06-17T03:51:50.108832,15.33652151,.0004332,97.4126,230.9950,262.3288,97.7462,0,U,43803,999,41362,.39004E-3,.12621E-3,0
UWE-4,2018-111E,2026-06-17T08:16:10.276032,15.46133218,.0005448,97.5856,96.7426,341.8769,18.2285,0,U,43880,999,41080,.53314E-3,.26096E-3,0
TIANYAN 01,2019-093C,2026-06-17T12:22:57.171936,14.86520695,.0015126,97.7537,240.7399,85.7937,274.5008,0,U,44881,999,35146,.68113E-4,.55E-5,0
RS-44 & BREEZE-KM R/B,2019-096E,2026-06-17T11:22:58.008000,12.79748855,.0218181,82.5218,339.5141,143.4966,218.1236,0,U,44909,999,30238,.37816E-5,.14E-6,0
SALSAT,2020-068K,2026-06-17T11:20:29.672160,15.29803093,.0008034,97.8846,171.5545,306.9379,53.1123,0,U,46495,999,31540,.2181E-3,.6216E-4,0
XW-3 (CAS-9),2021-131B,2026-06-17T12:58:23.145888,14.41357553,.0005403,98.4989,260.9282,96.1589,264.0216,0,U,50466,999,23516,.98942E-4,.276E-5,0
GREENCUBE (IO-117),2022-080E,2026-06-13T07:02:28.697280,6.42583230,.00089108,70.1444,299.5995,290.4576,69.5127,0,U,53109,999,9181,0,-.3E-7,0
UMKA 1 (RS40S),2023-091G,2026-06-17T11:43:43.279104,15.20821372,.0014244,97.5048,227.1847,116.7374,243.5321,0,U,57172,999,16405,.21969E-3,.4788E-4,0
CUBESX-HSE 3 (RS42S),2023-091N,2026-06-17T12:00:51.034752,15.31221873,.0012034,97.5089,234.0917,93.8530,266.4087,0,U,57178,999,16447,.35036E-3,.10513E-3,0
MONITOR-3 (RS58S),2023-091Q,2026-06-17T11:02:48.007104,15.27846325,.0013108,97.5081,231.9082,99.9833,260.2886,0,U,57180,999,16433,.32567E-3,.8802E-4,0
MONITOR-4 (RS57S),2023-091S,2026-06-17T12:06:55.562400,15.27932681,.0013099,97.5074,231.9245,100.2206,260.0511,0,U,57182,999,16434,.3146E-3,.8522E-4,0
MONITOR-2 (RS39S),2023-091U,2026-06-17T12:14:52.284768,15.18913219,.0012751,97.5071,226.7912,110.0892,250.1716,0,U,57184,999,16400,.20972E-3,.4317E-4,0
SVYATOBOR 1 (RS60S),2023-091X,2026-06-17T12:26:10.271616,15.26620149,.0010869,97.5087,232.3369,93.4386,266.8096,0,U,57187,999,16436,.28627E-3,.7438E-4,0
VIZARD-METEO (RS38S),2023-091Z,2026-06-17T11:21:36.822240,15.36033838,.0008244,97.5091,237.9643,76.8067,283.4095,0,U,57189,999,16473,.39922E-3,.1395E-3,0
POLYTECH-UNIVERSE 3 (RS46S),2023-091AB,2026-06-17T11:19:07.605120,15.19115190,.0016866,97.5046,226.2572,125.8857,234.3946,0,U,57191,999,16399,.18409E-3,.3809E-4,0
UTMN 2 (RS27S),2023-091AP,2026-06-17T12:25:55.758144,15.32058699,.0009244,97.5085,235.7435,82.9303,277.2989,0,U,57203,999,16459,.3365E-3,.10352E-3,0
